NORAD_CAT_ID,OBJECT_NAME,OBJECT_TYPE,EPOCH,MEAN_MOTION,ECCENTRICITY,INCLINATION,RA_OF_ASC_NODE,ARG_OF_PERICENTER,MEAN_ANOMALY,BSTAR,MEAN_MOTION_DOT,MEAN_MOTION_DDOT,TLE_LINE0,TLE_LINE1,TLE_LINE2,SEMIMAJOR_AXIS,PERIOD,APOGEE,PERIGEE,DECAYED
50822.0,STARLINK-3343,PAYLOAD,2023-05-18 02:07:12,15.08833996,0.0001134,53.2172,97.7083,95.4702,264.6419,5.1324e-06,-2.06e-06,0.0,0 STARLINK-3343,1 50822U 22001V   23138.08834354 -.00000206  00000-0  51324-5 0  9993,2 50822  53.2172  97.7083 0001134  95.4702 264.6419 15.08833996 76679,6917.899,95.438,540.548,538.979,0.0
50822.0,STARLINK-3343,PAYLOAD,2023-05-18 06:53:22,15.08838006,0.0001171,53.2185,96.8141,96.4208,263.6918,-1.0618e-05,-4.57e-06,0.0,0 STARLINK-3343,1 50822U 22001V   23138.28706162 -.00000457  00000-0 -10618-4 0  9999,2 50822  53.2185  96.8141 0001171  96.4208 263.6918 15.08838006 75456,6917.886,95.438,540.562,538.941,0.0
50822.0,STARLINK-3343,PAYLOAD,2023-05-19 01:57:58,15.08849086,0.0001171,53.2184,93.2469,99.1903,260.9221,2.4198e-07,-2.84e-06,0.0,0 STARLINK-3343,1 50822U 22001V   23139.08193241 -.00000284  00000-0  24198-6 0  9993,2 50822  53.2184  93.2469 0001171  99.1903 260.9221 15.08849086 76820,6917.853,95.437,540.528,538.908,0.0
50822.0,STARLINK-3343,PAYLOAD,2023-05-19 03:33:21,15.08853722,0.0001189,53.2188,92.9488,99.3559,260.7568,-3.0624e-05,-7.75e-06,0.0,0 STARLINK-3343,1 50822U 22001V   23139.14817055 -.00000775  00000-0 -30624-4 0  9991,2 50822  53.2188  92.9488 0001189  99.3559 260.7568 15.08853722 75585,6917.838,95.437,540.526,538.881,0.0
50822.0,STARLINK-3343,PAYLOAD,2023-05-20 03:24:09,15.08844553,0.0001083,53.219,88.4958,89.2359,270.8757,-4.0255e-05,-9.28e-06,0.0,0 STARLINK-3343,1 50822U 22001V   23140.14177671 -.00000928  00000-0 -40255-4 0  9997,2 50822  53.2190  88.4958 0001083  89.2359 270.8757 15.08844553 76988,6917.866,95.437,540.481,538.982,0.0
50822.0,STARLINK-3343,PAYLOAD,2023-05-20 06:34:55,15.08842549,0.0001074,53.2176,87.8955,91.8395,268.272,5.85e-05,6.43e-06,0.0,0 STARLINK-3343,1 50822U 22001V   23140.27425424  .00000643  00000-0  58500-4 0  9997,2 50822  53.2176  87.8955 0001074  91.8395 268.2720 15.08842549 75759,6917.873,95.437,540.481,538.995,0.0
50822.0,STARLINK-3343,PAYLOAD,2023-05-21 06:25:41,15.08855624,0.0001033,53.2172,83.4359,77.4321,282.6786,7.1564e-05,8.52e-06,0.0,0 STARLINK-3343,1 50822U 22001V   23141.26784216  .00000852  00000-0  71564-4 0  9991,2 50822  53.2172  83.4359 0001033  77.4321 282.6786 15.08855624 77155,6917.833,95.437,540.412,538.983,0.0
50822.0,STARLINK-3343,PAYLOAD,2023-05-22 03:05:44,15.08827617,9.65e-05,53.2173,79.5702,104.3668,255.7432,-9.1337e-05,-1.741e-05,0.0,0 STARLINK-3343,1 50822U 22001V   23142.12899026 -.00001741  00000-0 -91337-4 0  9993,2 50822  53.2173  79.5702 0000965 104.3668 255.7432 15.08827617 77285,6917.918,95.438,540.451,539.116,0.0
50822.0,STARLINK-3343,PAYLOAD,2023-05-22 12:38:03,15.08830985,0.0001013,53.2175,77.7859,104.3062,255.8043,-5.9979e-05,-1.242e-05,0.0,0 STARLINK-3343,1 50822U 22001V   23142.52643005 -.00001242  00000-0 -59979-4 0  9993,2 50822  53.2175  77.7859 0001013 104.3062 255.8043 15.08830985 76092,6917.908,95.438,540.474,539.072,0.0
50822.0,STARLINK-3343,PAYLOAD,2023-05-23 02:56:32,15.08835037,0.0001038,53.218,75.1102,102.4082,257.7026,-9.0089e-05,-1.721e-05,0.0,0 STARLINK-3343,1 50822U 22001V   23143.12259371 -.00001721  00000-0 -90089-4 0  9998,2 50822  53.2180  75.1102 0001038 102.4082 257.7026 15.08835037 77433,6917.896,95.438,540.479,539.042,0.0
50822.0,STARLINK-3343,PAYLOAD,2023-05-23 23:36:31,15.08845098,0.0001088,53.2188,71.2447,111.1449,248.9659,0.00022903,3.36e-05,0.0,0 STARLINK-3343,1 50822U 22001V   23143.98370087  .00003360  00000-0  22903-3 0  9998,2 50822  53.2188  71.2447 0001088 111.1449 248.9659 15.08845098 77565,6917.865,95.437,540.482,538.977,0.0
50822.0,STARLINK-3343,PAYLOAD,2023-05-24 04:22:40,15.08852337,0.000112,53.2188,70.3527,111.4044,248.7068,0.00028724,4.288e-05,0.0,0 STARLINK-3343,1 50822U 22001V   23144.18241520  .00004288  00000-0  28724-3 0  9997,2 50822  53.2188  70.3527 0001120 111.4044 248.7068 15.08852337 77594,6917.843,95.437,540.482,538.933,0.0
50822.0,STARLINK-3343,PAYLOAD,2023-05-25 18:31:56,15.08850368,0.0001246,53.2189,63.2142,135.053,225.0563,-1.1096e-05,-4.65e-06,0.0,0 STARLINK-3343,1 50822U 22001V   23145.77218386 -.00000465  00000-0 -11096-4 0  9997,2 50822  53.2189  63.2142 0001246 135.0530 225.0563 15.08850368 77837,6917.849,95.437,540.576,538.852,0.0
50822.0,STARLINK-3343,PAYLOAD,2023-05-25 21:42:42,15.08854293,0.000107,53.2183,62.6217,125.7474,234.3617,-2.426e-05,-6.74e-06,0.0,0 STARLINK-3343,1 50822U 22001V   23145.90466131 -.00000674  00000-0 -24260-4 0  9994,2 50822  53.2183  62.6217 0001070 125.7474 234.3617 15.08854293 76603,6917.837,95.437,540.442,538.961,0.0
50822.0,STARLINK-3343,PAYLOAD,2023-05-26 00:53:28,15.08856889,0.0001123,53.2189,62.0272,123.9729,236.137,1.2612e-07,-2.86e-06,0.0,0 STARLINK-3343,1 50822U 22001V   23146.03713815 -.00000286  00000-0  12612-6 0  9991,2 50822  53.2189  62.0272 0001123 123.9729 236.1370 15.08856889 77875,6917.829,95.436,540.471,538.917,0.0
50822.0,STARLINK-3343,PAYLOAD,2023-05-26 21:33:30,15.08838086,0.0001047,53.2184,58.1621,107.681,252.4296,2.6157e-05,1.29e-06,0.0,0 STARLINK-3343,1 50822U 22001V   23146.89826919  .00000129  00000-0  26157-4 0  9997,2 50822  53.2184  58.1621 0001047 107.6810 252.4296 15.08838086 76752,6917.886,95.438,540.476,539.027,0.0
50822.0,STARLINK-3343,PAYLOAD,2023-05-26 23:08:53,15.08848976,8.82e-05,53.2193,57.8667,93.9336,266.1758,-0.00018596,-3.247e-05,0.0,0 STARLINK-3343,1 50822U 22001V   23146.96450929 -.00003247  00000-0 -18596-3 0  9992,2 50822  53.2193  57.8667 0000882  93.9336 266.1758 15.08848976 78019,6917.853,95.437,540.328,539.108,0.0
50822.0,STARLINK-3343,PAYLOAD,2023-05-27 21:24:17,15.08843209,0.0001034,53.2189,53.7011,108.9862,251.1242,9.4373e-06,-1.38e-06,0.0,0 STARLINK-3343,1 50822U 22001V   23147.89186661 -.00000138  00000-0  94373-5 0  9998,2 50822  53.2189  53.7011 0001034 108.9862 251.1242 15.08843209 76905,6917.871,95.437,540.451,539.02,0.0
50822.0,STARLINK-3343,PAYLOAD,2023-05-28 00:35:03,15.08846027,8.68e-05,53.2181,53.1065,88.4336,271.6756,3.9164e-05,3.36e-06,0.0,0 STARLINK-3343,1 50822U 22001V   23148.02434433  .00000336  00000-0  39164-4 0  9992,2 50822  53.2181  53.1065 0000868  88.4336 271.6756 15.08846027 78171,6917.862,95.437,540.327,539.126,0.0
50822.0,STARLINK-3343,PAYLOAD,2023-05-28 18:04:18,15.08838212,8.36e-05,53.2177,49.8362,87.7568,272.352,9.0788e-05,1.157e-05,0.0,0 STARLINK-3343,1 50822U 22001V   23148.75298888  .00001157  00000-0  90788-4 0  9995,2 50822  53.2177  49.8362 0000836  87.7568 272.3520 15.08838212 78288,6917.886,95.438,540.329,539.173,0.0
50822.0,STARLINK-3343,PAYLOAD,2023-05-28 21:15:04,15.08839447,8.55e-05,53.2178,49.2415,86.8132,273.2958,9.9553e-05,1.297e-05,0.0,0 STARLINK-3343,1 50822U 22001V   23148.88546817  .00001297  00000-0  99553-4 0  9991,2 50822  53.2178  49.2415 0000855  86.8132 273.2958 15.08839447 77050,6917.882,95.438,540.339,539.156,0.0
50822.0,STARLINK-3343,PAYLOAD,2023-05-29 00:25:50,15.08842513,9.14e-05,53.2179,48.6463,85.9254,274.1843,0.00013122,1.801e-05,0.0,0 STARLINK-3343,1 50822U 22001V   23149.01794557  .00001801  00000-0  13122-3 0  9991,2 50822  53.2179  48.6463 0000914  85.9254 274.1843 15.08842513 77071,6917.873,95.437,540.37,539.105,0.0
50822.0,STARLINK-3343,PAYLOAD,2023-05-29 16:19:42,15.08833327,0.0001018,53.2171,45.6746,98.6814,261.4294,2.5274e-05,1.14e-06,0.0,0 STARLINK-3343,1 50822U 22001V   23149.68035502  .00000114  00000-0  25274-4 0  9990,2 50822  53.2171  45.6746 0001018  98.6814 261.4294 15.08833327 78425,6917.901,95.438,540.47,539.062,0.0
50822.0,STARLINK-3343,PAYLOAD,2023-05-29 21:05:52,15.08832919,9.67e-05,53.2179,44.7819,85.1029,275.0073,-4.2371e-05,-9.62e-06,0.0,0 STARLINK-3343,1 50822U 22001V   23149.87907838 -.00000962  00000-0 -42371-4 0  9991,2 50822  53.2179  44.7819 0000967  85.1029 275.0073 15.08832919 77202,6917.902,95.438,540.436,539.098,0.0
50822.0,STARLINK-3343,PAYLOAD,2023-05-30 01:52:01,15.08838724,9.86e-05,53.2182,43.8893,81.9862,278.1242,1.2185e-05,-9.4e-07,0.0,0 STARLINK-3343,1 50822U 22001V   23150.07779350 -.00000094  00000-0  12185-4 0  9996,2 50822  53.2182  43.8893 0000986  81.9862 278.1242 15.08838724 77233,6917.884,95.438,540.431,539.067,0.0
50822.0,STARLINK-3343,PAYLOAD,2023-05-30 22:32:01,15.08843725,0.0001029,53.2179,40.0235,94.3588,265.7521,4.7074e-05,4.62e-06,0.0,0 STARLINK-3343,1 50822U 22001V   23150.93890997  .00000462  00000-0  47074-4 0  9995,2 50822  53.2179  40.0235 0001029  94.3588 265.7521 15.08843725 77363,6917.869,95.437,540.446,539.022,0.0
50822.0,STARLINK-3343,PAYLOAD,2023-05-31 01:42:47,15.08847298,0.0001062,53.2176,39.4288,97.7089,262.4024,7.5209e-05,9.1e-06,0.0,0 STARLINK-3343,1 50822U 22001V   23151.07138647  .00000910  00000-0  75209-4 0  9997,2 50822  53.2176  39.4288 0001062  97.7089 262.4024 15.08847298 78632,6917.858,95.437,540.458,538.988,0.0
50822.0,STARLINK-3343,PAYLOAD,2023-05-31 16:01:16,15.08836352,0.0001078,53.2176,36.7516,117.1549,242.9554,8.1598e-05,1.011e-05,0.0,0 STARLINK-3343,1 50822U 22001V   23151.66755311  .00001011  00000-0  81598-4 0  9996,2 50822  53.2176  36.7516 0001078 117.1549 242.9554 15.08836352 78721,6917.892,95.438,540.502,539.011,0.0
50822.0,STARLINK-3343,PAYLOAD,2023-05-31 22:22:49,15.08838707,0.0001038,53.2179,35.5624,104.2402,255.8706,9.202e-05,1.177e-05,0.0,0 STARLINK-3343,1 50822U 22001V   23151.93251231  .00001177  00000-0  92020-4 0  9993,2 50822  53.2179  35.5624 0001038 104.2402 255.8706 15.08838707 77516,6917.884,95.438,540.467,539.031,0.0
50822.0,STARLINK-3343,PAYLOAD,2023-05-31 23:58:11,15.08841889,0.0001066,53.2175,35.2652,108.4419,251.6689,0.00014683,2.05e-05,0.0,0 STARLINK-3343,1 50822U 22001V   23151.99874862  .00002050  00000-0  14683-3 0  9999,2 50822  53.2175  35.2652 0001066 108.4419 251.6689 15.08841889 77525,6917.875,95.437,540.477,539.002,0.0
